{
  "norad_id": 43782,
  "name": "SNUSAT-2",
  "history": [
    {
      "epoch": "2026-03-28T16:30:21.510144Z",
      "apogee_km": 511.06663993886286,
      "perigee_km": 497.4433579205015,
      "latitude_deg": 3.3292549611620944e-05,
      "longitude_deg": 68.65315793928806,
      "height_km": 513.2868541076659,
      "semi_major_axis_km": 6882.391998929682,
      "eccentricity": 0.00098972,
      "inclination_deg": 97.4161,
      "raan_deg": 142.3474,
      "arg_perigee_deg": 209.4031,
      "mean_anomaly_deg": 150.6649,
      "mean_motion_rev_day": 15.20525313
    },
    {
      "epoch": "2026-03-29T03:33:42.557472Z",
      "apogee_km": 511.03281834916106,
      "perigee_km": 497.4126284565473,
      "latitude_deg": 4.950325166096752e-06,
      "longitude_deg": -97.1853831192506,
      "height_km": 513.3482668427637,
      "semi_major_axis_km": 6882.359723402854,
      "eccentricity": 0.0009895,
      "inclination_deg": 97.4161,
      "raan_deg": 142.8006,
      "arg_perigee_deg": 207.7278,
      "mean_anomaly_deg": 152.3431,
      "mean_motion_rev_day": 15.20536009
    },
    {
      "epoch": "2026-03-30T03:15:09.436896Z",
      "apogee_km": 511.018842246408,
      "perigee_km": 497.26392067322195,
      "latitude_deg": 6.788303095415103e-06,
      "longitude_deg": -92.54912694509572,
      "height_km": 513.5188570028372,
      "semi_major_axis_km": 6882.278381459815,
      "eccentricity": 0.0009993,
      "inclination_deg": 97.416,
      "raan_deg": 143.7718,
      "arg_perigee_deg": 204.0509,
      "mean_anomaly_deg": 156.0261,
      "mean_motion_rev_day": 15.20562966
    },
    {
      "epoch": "2026-03-30T03:15:09.437760Z",
      "apogee_km": 511.01870460084046,
      "perigee_km": 497.2640583187904,
      "latitude_deg": 5.8553643469375595e-06,
      "longitude_deg": -92.5491304341904,
      "height_km": 513.5187312794594,
      "semi_major_axis_km": 6882.278381459815,
      "eccentricity": 0.00099928,
      "inclination_deg": 97.416,
      "raan_deg": 143.7718,
      "arg_perigee_deg": 204.0509,
      "mean_anomaly_deg": 156.0261,
      "mean_motion_rev_day": 15.20562966
    },
    {
      "epoch": "2026-03-30T14:18:29.514816Z",
      "apogee_km": 511.03263584436354,
      "perigee_km": 497.1832190870273,
      "latitude_deg": -6.04251682040834e-05,
      "longitude_deg": 101.61648786529454,
      "height_km": 513.6028709577598,
      "semi_major_axis_km": 6882.244927465696,
      "eccentricity": 0.00100617,
      "inclination_deg": 97.4157,
      "raan_deg": 144.2251,
      "arg_perigee_deg": 202.4911,
      "mean_anomaly_deg": 157.5884,
      "mean_motion_rev_day": 15.20574053
    },
    {
      "epoch": "2026-03-31T02:56:34.962432Z",
      "apogee_km": 511.0367990433642,
      "perigee_km": 497.1022578410957,
      "latitude_deg": 2.225299548868408e-08,
      "longitude_deg": -87.90721243024593,
      "height_km": 513.6822326560861,
      "semi_major_axis_km": 6882.20652844223,
      "eccentricity": 0.00101236,
      "inclination_deg": 97.4155,
      "raan_deg": 144.743,
      "arg_perigee_deg": 200.7351,
      "mean_anomaly_deg": 159.3475,
      "mean_motion_rev_day": 15.20586779
    },
    {
      "epoch": "2026-04-01T08:57:01.585728Z",
      "apogee_km": 511.063702179772,
      "perigee_km": 496.93605159889375,
      "latitude_deg": 4.9840408592968444e-05,
      "longitude_deg": -178.0204075238627,
      "height_km": 513.8630777504333,
      "semi_major_axis_km": 6882.136876889333,
      "eccentricity": 0.0010264,
      "inclination_deg": 97.4149,
      "raan_deg": 145.9731,
      "arg_perigee_deg": 196.6675,
      "mean_anomaly_deg": 163.4225,
      "mean_motion_rev_day": 15.20609863
    },
    {
      "epoch": "2026-04-01T08:57:01.586592Z",
      "apogee_km": 511.0638398225101,
      "perigee_km": 496.9359139561566,
      "latitude_deg": 5.049276157987886e-05,
      "longitude_deg": -178.02041121814835,
      "height_km": 513.8632096396702,
      "semi_major_axis_km": 6882.136876889333,
      "eccentricity": 0.00102642,
      "inclination_deg": 97.4149,
      "raan_deg": 145.9731,
      "arg_perigee_deg": 196.6675,
      "mean_anomaly_deg": 163.4225,
      "mean_motion_rev_day": 15.20609863
    },
    {
      "epoch": "2026-04-02T22:51:13.205088Z",
      "apogee_km": 511.0089555370678,
      "perigee_km": 496.68534428617386,
      "latitude_deg": -8.936187574185778e-06,
      "longitude_deg": -26.571642723807155,
      "height_km": 513.9767327911887,
      "semi_major_axis_km": 6881.984149911621,
      "eccentricity": 0.00104066,
      "inclination_deg": 97.4142,
      "raan_deg": 147.5269,
      "arg_perigee_deg": 190.8233,
      "mean_anomaly_deg": 169.278,
      "mean_motion_rev_day": 15.20660482
    },
    {
      "epoch": "2026-04-03T16:13:31.970208Z",
      "apogee_km": 510.9654379893682,
      "perigee_km": 496.5918689555265,
      "latitude_deg": 5.5022026896903524e-05,
      "longitude_deg": 72.84882325413822,
      "height_km": 513.9908445099038,
      "semi_major_axis_km": 6881.915653472447,
      "eccentricity": 0.0010443,
      "inclination_deg": 97.4139,
      "raan_deg": 148.239,
      "arg_perigee_deg": 187.9567,
      "mean_anomaly_deg": 172.1505,
      "mean_motion_rev_day": 15.20683185
    }
  ]
}